[{"OBJECT_NAME":"STARLINK-36814","OBJECT_ID":"2026-036A","EPOCH":"2026-03-09T22:00:01.999584","MEAN_MOTION":15.74661974,"ECCENTRICITY":0.00015797,"INCLINATION":42.9995,"RA_OF_ASC_NODE":248.4785,"ARG_OF_PERICENTER":276.779,"MEAN_ANOMALY":148.1663,"EPHEMERIS_TYPE":0,"CLASSIFICATION_TYPE":"U","NORAD_CAT_ID":67904,"ELEMENT_SET_NO":999,"REV_AT_EPOCH":368,"BSTAR":-0.014123764,"MEAN_MOTION_DOT":-0.01861626,"MEAN_MOTION_DDOT":0},{"OBJECT_NAME":"PSLV DEB","OBJECT_ID":"2001-049BW","EPOCH":"2026-03-09T21:17:53.344608","MEAN_MOTION":15.63832708,"ECCENTRICITY":0.00063664,"INCLINATION":98.1378,"RA_OF_ASC_NODE":175.6257,"ARG_OF_PERICENTER":100.8208,"MEAN_ANOMALY":259.3766,"EPHEMERIS_TYPE":0,"CLASSIFICATION_TYPE":"U","NORAD_CAT_ID":27126,"ELEMENT_SET_NO":999,"REV_AT_EPOCH":31360,"BSTAR":0.002160394,"MEAN_MOTION_DOT":0.00207187,"MEAN_MOTION_DDOT":0}]
